CCSDS_OMM_VERS = 2.0
CREATION_DATE  = 
ORIGINATOR     = 

OBJECT_NAME    = STARLINK-35343
OBJECT_ID      = 2026-003A
CENTER_NAME    = EARTH
REF_FRAME      = TEME
TIME_SYSTEM    = UTC
MEAN_ELEMENT_THEORY = SGP/SGP4

EPOCH          = 2026-02-05T01:45:22.466016
MEAN_MOTION    = 15.50602418
ECCENTRICITY   = .0001893
INCLINATION    = 43.0022
RA_OF_ASC_NODE = 52.3099
ARG_OF_PERICENTER = 253.5311
MEAN_ANOMALY   = 106.5341

EPHEMERIS_TYPE = 0
CLASSIFICATION_TYPE = U
NORAD_CAT_ID   = 67334
ELEMENT_SET_NO = 999
REV_AT_EPOCH   = 382
BSTAR          = .17524E-2
MEAN_MOTION_DOT = .103927E-2
MEAN_MOTION_DDOT = 0

CCSDS_OMM_VERS = 2.0
CREATION_DATE  = 
ORIGINATOR     = 

OBJECT_NAME    = STARLINK-36486
OBJECT_ID      = 2026-003B
CENTER_NAME    = EARTH
REF_FRAME      = TEME
TIME_SYSTEM    = UTC
MEAN_ELEMENT_THEORY = SGP/SGP4

EPOCH          = 2026-02-05T01:44:54.608064
MEAN_MOTION    = 15.50566451
ECCENTRICITY   = .0000585
INCLINATION    = 42.9980
RA_OF_ASC_NODE = 52.3082
ARG_OF_PERICENTER = 252.9966
MEAN_ANOMALY   = 107.0830

EPHEMERIS_TYPE = 0
CLASSIFICATION_TYPE = U
NORAD_CAT_ID   = 67335
ELEMENT_SET_NO = 999
REV_AT_EPOCH   = 382
BSTAR          = .15423E-2
MEAN_MOTION_DOT = .91157E-3
MEAN_MOTION_DDOT = 0

CCSDS_OMM_VERS = 2.0
CREATION_DATE  = 
ORIGINATOR     = 

OBJECT_NAME    = STARLINK-36480
OBJECT_ID      = 2026-003C
CENTER_NAME    = EARTH
REF_FRAME      = TEME
TIME_SYSTEM    = UTC
MEAN_ELEMENT_THEORY = SGP/SGP4

EPOCH          = 2026-02-05T00:00:01.999296
MEAN_MOTION    = 15.50556248
ECCENTRICITY   = .0001296
INCLINATION    = 42.9995
RA_OF_ASC_NODE = 52.7289
ARG_OF_PERICENTER = 258.1600
MEAN_ANOMALY   = 56.9115

EPHEMERIS_TYPE = 0
CLASSIFICATION_TYPE = U
NORAD_CAT_ID   = 67336
ELEMENT_SET_NO = 999
REV_AT_EPOCH   = 542
BSTAR          = .65526E-4
MEAN_MOTION_DOT = .3501E-4
MEAN_MOTION_DDOT = 0

CCSDS_OMM_VERS = 2.0
CREATION_DATE  = 
ORIGINATOR     = 

OBJECT_NAME    = STARLINK-36410
OBJECT_ID      = 2026-003D
CENTER_NAME    = EARTH
REF_FRAME      = TEME
TIME_SYSTEM    = UTC
MEAN_ELEMENT_THEORY = SGP/SGP4

EPOCH          = 2026-02-05T00:00:01.999296
MEAN_MOTION    = 15.50571915
ECCENTRICITY   = .000147
INCLINATION    = 42.9995
RA_OF_ASC_NODE = 52.7232
ARG_OF_PERICENTER = 267.6471
MEAN_ANOMALY   = 49.3314

EPHEMERIS_TYPE = 0
CLASSIFICATION_TYPE = U
NORAD_CAT_ID   = 67337
ELEMENT_SET_NO = 999
REV_AT_EPOCH   = 542
BSTAR          = .29513E-3
MEAN_MOTION_DOT = .17005E-3
MEAN_MOTION_DDOT = 0

CCSDS_OMM_VERS = 2.0
CREATION_DATE  = 
ORIGINATOR     = 

OBJECT_NAME    = STARLINK-36413
OBJECT_ID      = 2026-003E
CENTER_NAME    = EARTH
REF_FRAME      = TEME
TIME_SYSTEM    = UTC
MEAN_ELEMENT_THEORY = SGP/SGP4

EPOCH          = 2026-02-05T01:43:24.083328
MEAN_MOTION    = 15.50608290
ECCENTRICITY   = .0001243
INCLINATION    = 42.9992
RA_OF_ASC_NODE = 52.2991
ARG_OF_PERICENTER = 260.3981
MEAN_ANOMALY   = 99.6739

EPHEMERIS_TYPE = 0
CLASSIFICATION_TYPE = U
NORAD_CAT_ID   = 67338
ELEMENT_SET_NO = 999
REV_AT_EPOCH   = 382
BSTAR          = .18595E-2
MEAN_MOTION_DOT = .110413E-2
MEAN_MOTION_DDOT = 0

CCSDS_OMM_VERS = 2.0
CREATION_DATE  = 
ORIGINATOR     = 

OBJECT_NAME    = STARLINK-36451
OBJECT_ID      = 2026-003F
CENTER_NAME    = EARTH
REF_FRAME      = TEME
TIME_SYSTEM    = UTC
MEAN_ELEMENT_THEORY = SGP/SGP4

EPOCH          = 2026-02-05T01:42:54.336672
MEAN_MOTION    = 15.50612332
ECCENTRICITY   = .0001563
INCLINATION    = 42.9997
RA_OF_ASC_NODE = 52.2954
ARG_OF_PERICENTER = 255.1893
MEAN_ANOMALY   = 104.8794

EPHEMERIS_TYPE = 0
CLASSIFICATION_TYPE = U
NORAD_CAT_ID   = 67339
ELEMENT_SET_NO = 999
REV_AT_EPOCH   = 382
BSTAR          = .22802E-2
MEAN_MOTION_DOT = .135939E-2
MEAN_MOTION_DDOT = 0

CCSDS_OMM_VERS = 2.0
CREATION_DATE  = 
ORIGINATOR     = 

OBJECT_NAME    = STARLINK-36339
OBJECT_ID      = 2026-003G
CENTER_NAME    = EARTH
REF_FRAME      = TEME
TIME_SYSTEM    = UTC
MEAN_ELEMENT_THEORY = SGP/SGP4

EPOCH          = 2026-02-05T00:00:01.999296
MEAN_MOTION    = 15.50572176
ECCENTRICITY   = .0001185
INCLINATION    = 42.9995
RA_OF_ASC_NODE = 52.7088
ARG_OF_PERICENTER = 260.4470
MEAN_ANOMALY   = 62.2932

EPHEMERIS_TYPE = 0
CLASSIFICATION_TYPE = U
NORAD_CAT_ID   = 67340
ELEMENT_SET_NO = 999
REV_AT_EPOCH   = 542
BSTAR          = -.48137E-3
MEAN_MOTION_DOT = -.28471E-3
MEAN_MOTION_DDOT = 0

CCSDS_OMM_VERS = 2.0
CREATION_DATE  = 
ORIGINATOR     = 

OBJECT_NAME    = STARLINK-36453
OBJECT_ID      = 2026-003H
CENTER_NAME    = EARTH
REF_FRAME      = TEME
TIME_SYSTEM    = UTC
MEAN_ELEMENT_THEORY = SGP/SGP4

EPOCH          = 2026-02-05T00:00:01.999296
MEAN_MOTION    = 15.50532385
ECCENTRICITY   = .0001357
INCLINATION    = 42.9992
RA_OF_ASC_NODE = 52.7033
ARG_OF_PERICENTER = 254.7413
MEAN_ANOMALY   = 69.9155

EPHEMERIS_TYPE = 0
CLASSIFICATION_TYPE = U
NORAD_CAT_ID   = 67341
ELEMENT_SET_NO = 999
REV_AT_EPOCH   = 542
BSTAR          = .11452E-2
MEAN_MOTION_DOT = .67309E-3
MEAN_MOTION_DDOT = 0

CCSDS_OMM_VERS = 2.0
CREATION_DATE  = 
ORIGINATOR     = 

OBJECT_NAME    = STARLINK-36432
OBJECT_ID      = 2026-003J
CENTER_NAME    = EARTH
REF_FRAME      = TEME
TIME_SYSTEM    = UTC
MEAN_ELEMENT_THEORY = SGP/SGP4

EPOCH          = 2026-02-05T01:41:25.499328
MEAN_MOTION    = 15.50653802
ECCENTRICITY   = .0000427
INCLINATION    = 42.9963
RA_OF_ASC_NODE = 52.2873
ARG_OF_PERICENTER = 235.6408
MEAN_ANOMALY   = 124.4412

EPHEMERIS_TYPE = 0
CLASSIFICATION_TYPE = U
NORAD_CAT_ID   = 67342
ELEMENT_SET_NO = 999
REV_AT_EPOCH   = 382
BSTAR          = .18016E-2
MEAN_MOTION_DOT = .10709E-2
MEAN_MOTION_DDOT = 0

CCSDS_OMM_VERS = 2.0
CREATION_DATE  = 
ORIGINATOR     = 

OBJECT_NAME    = STARLINK-36458
OBJECT_ID      = 2026-003K
CENTER_NAME    = EARTH
REF_FRAME      = TEME
TIME_SYSTEM    = UTC
MEAN_ELEMENT_THEORY = SGP/SGP4

EPOCH          = 2026-02-05T01:40:55.801920
MEAN_MOTION    = 15.50613297
ECCENTRICITY   = .0001443
INCLINATION    = 42.9994
RA_OF_ASC_NODE = 52.2847
ARG_OF_PERICENTER = 254.9200
MEAN_ANOMALY   = 105.1500

EPHEMERIS_TYPE = 0
CLASSIFICATION_TYPE = U
NORAD_CAT_ID   = 67343
ELEMENT_SET_NO = 999
REV_AT_EPOCH   = 382
BSTAR          = .22201E-2
MEAN_MOTION_DOT = .132287E-2
MEAN_MOTION_DDOT = 0

CCSDS_OMM_VERS = 2.0
CREATION_DATE  = 
ORIGINATOR     = 

OBJECT_NAME    = STARLINK-36422
OBJECT_ID      = 2026-003L
CENTER_NAME    = EARTH
REF_FRAME      = TEME
TIME_SYSTEM    = UTC
MEAN_ELEMENT_THEORY = SGP/SGP4

EPOCH          = 2026-02-05T01:40:26.336928
MEAN_MOTION    = 15.50640458
ECCENTRICITY   = .0000404
INCLINATION    = 42.9976
RA_OF_ASC_NODE = 52.2814
ARG_OF_PERICENTER = 237.5064
MEAN_ANOMALY   = 122.5757

EPHEMERIS_TYPE = 0
CLASSIFICATION_TYPE = U
NORAD_CAT_ID   = 67344
ELEMENT_SET_NO = 999
REV_AT_EPOCH   = 382
BSTAR          = .15564E-2
MEAN_MOTION_DOT = .92252E-3
MEAN_MOTION_DDOT = 0

CCSDS_OMM_VERS = 2.0
CREATION_DATE  = 
ORIGINATOR     = 

OBJECT_NAME    = STARLINK-35676
OBJECT_ID      = 2026-003M
CENTER_NAME    = EARTH
REF_FRAME      = TEME
TIME_SYSTEM    = UTC
MEAN_ELEMENT_THEORY = SGP/SGP4

EPOCH          = 2026-02-05T01:39:56.573856
MEAN_MOTION    = 15.50640446
ECCENTRICITY   = .0002921
INCLINATION    = 42.9996
RA_OF_ASC_NODE = 52.2791
ARG_OF_PERICENTER = 286.2632
MEAN_ANOMALY   = 73.7907

EPHEMERIS_TYPE = 0
CLASSIFICATION_TYPE = U
NORAD_CAT_ID   = 67345
ELEMENT_SET_NO = 999
REV_AT_EPOCH   = 382
BSTAR          = .1475E-2
MEAN_MOTION_DOT = .87362E-3
MEAN_MOTION_DDOT = 0

