STARLINK-35343          
1 67334U 26003A   26036.07317669  .00103927  00000+0  17524-2 0  9992
2 67334  43.0022  52.3099 0001893 253.5311 106.5341 15.50602418  3820
STARLINK-36486          
1 67335U 26003B   26036.07285426  .00091157  00000+0  15423-2 0  9995
2 67335  42.9980  52.3082 0000585 252.9966 107.0830 15.50566451  3825
STARLINK-36480          
1 67336U 26003C   26036.00002314  .00003501  00000+0  65526-4 0  9999
2 67336  42.9995  52.7289 0001296 258.1600  56.9115 15.50556248  5427
STARLINK-36410          
1 67337U 26003D   26036.00002314  .00017005  00000+0  29513-3 0  9999
2 67337  42.9995  52.7232 0001470 267.6471  49.3314 15.50571915  5426
STARLINK-36413          
1 67338U 26003E   26036.07180652  .00110413  00000+0  18595-2 0  9993
2 67338  42.9992  52.2991 0001243 260.3981  99.6739 15.50608290  3823
STARLINK-36451          
1 67339U 26003F   26036.07146223  .00135939  00000+0  22802-2 0  9996
2 67339  42.9997  52.2954 0001563 255.1893 104.8794 15.50612332  3829
STARLINK-36339          
1 67340U 26003G   26036.00002314 -.00028471  00000+0 -48137-3 0  9997
2 67340  42.9995  52.7088 0001185 260.4470  62.2932 15.50572176  5422
STARLINK-36453          
1 67341U 26003H   26036.00002314  .00067309  00000+0  11452-2 0  9998
2 67341  42.9992  52.7033 0001357 254.7413  69.9155 15.50532385  5423
STARLINK-36432          
1 67342U 26003J   26036.07043402  .00107090  00000+0  18016-2 0  9994
2 67342  42.9963  52.2873 0000427 235.6408 124.4412 15.50653802  3821
STARLINK-36458          
1 67343U 26003K   26036.07009030  .00132287  00000+0  22201-2 0  9991
2 67343  42.9994  52.2847 0001443 254.9200 105.1500 15.50613297  3828
STARLINK-36422          
1 67344U 26003L   26036.06974927  .00092252  00000+0  15564-2 0  9998
2 67344  42.9976  52.2814 0000404 237.5064 122.5757 15.50640458  3820
STARLINK-35676          
1 67345U 26003M   26036.06940479  .00087362  00000+0  14750-2 0  9996
2 67345  42.9996  52.2791 0002921 286.2632  73.7907 15.50640446  3826
